{"type": "FeatureCollection", "features": [ {"type": "Feature", "properties": {"norad_id": 37550, "name": "IRIDIUM 33 DEB", "group": "iridium-33-debris", "lat": -81.48617813544458, "lon": -4.486565601258443, "alt_km": 681.0925599634556, "timestamp": "2025-12-20T05:41:50.416721+00:00", "meta": {"OBJECT_NAME": "IRIDIUM 33 DEB", "OBJECT_ID": "1997-051XK", "EPOCH": "2025-12-19T08:47:41.172864", "MEAN_MOTION": 14.67293181, "ECCENTRICITY": 0.0005615, "INCLINATION": 86.3772, "RA_OF_ASC_NODE": 20.938, "ARG_OF_PERICENTER": 96.5697, "MEAN_ANOMALY": 263.6157, "EPHEMERIS_TYPE": 0, "CLASSIFICATION_TYPE": "U", "NORAD_CAT_ID": 37550, "ELEMENT_SET_NO": 999, "REV_AT_EPOCH": 86430, "BSTAR": 0.00085807, "MEAN_MOTION_DOT": 4.861e-05, "MEAN_MOTION_DDOT": 0}, "tle": {"line1": "1 37550U 97051XK  25353.36644876  .00004861  00000+0  85807-3 0  9993", "line2": "2 37550  86.3772  20.9380 0005615  96.5697 263.6157 14.67293181864309"}}, "geometry": {"type": "Point", "coordinates": [-4.486565601258443, -81.48617813544458]}}, {"type": "Feature", "properties": {"norad_id": 37562, "name": "IRIDIUM 33 DEB", "group": "iridium-33-debris", "lat": -16.968754915402236, "lon": -138.55915414156, "alt_km": 716.7392442493747, "timestamp": "2025-12-20T05:41:50.416731+00:00", "meta": {"OBJECT_NAME": "IRIDIUM 33 DEB", "OBJECT_ID": "1997-051XX", "EPOCH": "2025-12-17T21:32:59.557056", "MEAN_MOTION": 14.56520214, "ECCENTRICITY": 0.00266504, "INCLINATION": 86.3744, "RA_OF_ASC_NODE": 41.3522, "ARG_OF_PERICENTER": 91.7117, "MEAN_ANOMALY": 85.7489, "EPHEMERIS_TYPE": 0, "CLASSIFICATION_TYPE": "U", "NORAD_CAT_ID": 37562, "ELEMENT_SET_NO": 999, "REV_AT_EPOCH": 86403, "BSTAR": 0.00077741138, "MEAN_MOTION_DOT": 3.496e-05, "MEAN_MOTION_DDOT": 0}, "tle": {"line1": "1 37562U 97051XX  25351.89791154  .00003496  00000+0  77741-3 0  9995", "line2": "2 37562  86.3744  41.3522 0026650  91.7117  85.7489 14.56520214864031"}}, "geometry": {"type": "Point", "coordinates": [-138.55915414156, -16.968754915402236]}}, {"type": "Feature", "properties": {"norad_id": 37565, "name": "IRIDIUM 33 DEB", "group": "iridium-33-debris", "lat": -23.36829576601551, "lon": -172.10634847309495, "alt_km": 734.4919623997566, "timestamp": "2025-12-20T05:41:50.416742+00:00", "meta": {"OBJECT_NAME": "IRIDIUM 33 DEB", "OBJECT_ID": "1997-051YA", "EPOCH": "2025-12-18T18:01:14.918304", "MEAN_MOTION": 14.5154101, "ECCENTRICITY": 0.00150095, "INCLINATION": 86.3492, "RA_OF_ASC_NODE": 6.9602, "ARG_OF_PERICENTER": 66.8058, "MEAN_ANOMALY": 293.4726, "EPHEMERIS_TYPE": 0, "CLASSIFICATION_TYPE": "U", "NORAD_CAT_ID": 37565, "ELEMENT_SET_NO": 999, "REV_AT_EPOCH": 65924, "BSTAR": 0.00039383298, "MEAN_MOTION_DOT": 1.597e-05, "MEAN_MOTION_DDOT": 0}, "tle": {"line1": "1 37565U 97051YA  25352.75086711  .00001597  00000+0  39383-3 0  9990", "line2": "2 37565  86.3492   6.9602 0015009  66.8058 293.4726 14.51541010659242"}}, "geometry": {"type": "Point", "coordinates": [-172.10634847309495, -23.36829576601551]}}, {"type": "Feature", "properties": {"norad_id": 38017, "name": "IRIDIUM 33 DEB", "group": "iridium-33-debris", "lat": -47.492826568108875, "lon": -13.028858382455795, "alt_km": 791.1747286974696, "timestamp": "2025-12-20T05:41:50.416752+00:00", "meta": {"OBJECT_NAME": "IRIDIUM 33 DEB", "OBJECT_ID": "1997-051YD", "EPOCH": "2025-12-18T04:36:04.603680", "MEAN_MOTION": 14.49190685, "ECCENTRICITY": 0.00919647, "INCLINATION": 86.3412, "RA_OF_ASC_NODE": 163.8576, "ARG_OF_PERICENTER": 84.7873, "MEAN_ANOMALY": 276.3818, "EPHEMERIS_TYPE": 0, "CLASSIFICATION_TYPE": "U", "NORAD_CAT_ID": 38017, "ELEMENT_SET_NO": 999, "REV_AT_EPOCH": 61481, "BSTAR": 0.0038247823, "MEAN_MOTION_DOT": 0.00015406, "MEAN_MOTION_DDOT": 0}, "tle": {"line1": "1 38017U 97051YD  25352.19171995  .00015406  00000+0  38248-2 0  9992", "line2": "2 38017  86.3412 163.8576 0091964  84.7873 276.3818 14.49190685614819"}}, "geometry": {"type": "Point", "coordinates": [-13.028858382455795, -47.492826568108875]}}, {"type": "Feature", "properties": {"norad_id": 38022, "name": "IRIDIUM 33 DEB", "group": "iridium-33-debris", "lat": 22.599610359532978, "lon": -168.39693287798247, "alt_km": 775.2853082204447, "timestamp": "2025-12-20T05:41:50.416762+00:00", "meta": {"OBJECT_NAME": "IRIDIUM 33 DEB", "OBJECT_ID": "1997-051YJ", "EPOCH": "2025-12-19T18:58:32.469312", "MEAN_MOTION": 14.41290935, "ECCENTRICITY": 0.00458382, "INCLINATION": 86.2683, "RA_OF_ASC_NODE": 13.3554, "ARG_OF_PERICENTER": 27.8099, "MEAN_ANOMALY": 332.5536, "EPHEMERIS_TYPE": 0, "CLASSIFICATION_TYPE": "U", "NORAD_CAT_ID": 38022, "ELEMENT_SET_NO": 999, "REV_AT_EPOCH": 69295, "BSTAR": 0.00071023159, "MEAN_MOTION_DOT": 2.344e-05, "MEAN_MOTION_DDOT": 0}, "tle": {"line1": "1 38022U 97051YJ  25353.79065358  .00002344  00000+0  71023-3 0  9996", "line2": "2 38022  86.2683  13.3554 0045838  27.8099 332.5536 14.41290935692950"}}, "geometry": {"type": "Point", "coordinates": [-168.39693287798247, 22.599610359532978]}}, {"type": "Feature", "properties": {"norad_id": 38028, "name": "IRIDIUM 33 DEB", "group": "iridium-33-debris", "lat": 72.24505920156385, "lon": 8.588241240394842, "alt_km": 711.5281883915604, "timestamp": "2025-12-20T05:41:50.416773+00:00", "meta": {"OBJECT_NAME": "IRIDIUM 33 DEB", "OBJECT_ID": "1997-051YQ", "EPOCH": "2025-12-19T17:44:22.316352", "MEAN_MOTION": 14.46188799, "ECCENTRICITY": 0.0030512, "INCLINATION": 86.3252, "RA_OF_ASC_NODE": 357.2262, "ARG_OF_PERICENTER": 99.065, "MEAN_ANOMALY": 261.4007, "EPHEMERIS_TYPE": 0, "CLASSIFICATION_TYPE": "U", "NORAD_CAT_ID": 38028, "ELEMENT_SET_NO": 999, "REV_AT_EPOCH": 65596, "BSTAR": 0.00016660929, "MEAN_MOTION_DOT": 6.2e-06, "MEAN_MOTION_DDOT": 0}, "tle": {"line1": "1 38028U 97051YQ  25353.73914718  .00000620  00000+0  16661-3 0  9991", "line2": "2 38028  86.3252 357.2262 0030512  99.0650 261.4007 14.46188799655964"}}, "geometry": {"type": "Point", "coordinates": [8.588241240394842, 72.24505920156385]}}, {"type": "Feature", "properties": {"norad_id": 38228, "name": "IRIDIUM 33 DEB", "group": "iridium-33-debris", "lat": -37.74694415384925, "lon": -131.84153850222407, "alt_km": 778.6310661400994, "timestamp": "2025-12-20T05:41:50.416783+00:00", "meta": {"OBJECT_NAME": "IRIDIUM 33 DEB", "OBJECT_ID": "1997-051ZC", "EPOCH": "2025-12-19T22:31:11.280864", "MEAN_MOTION": 14.27277323, "ECCENTRICITY": 0.00650825, "INCLINATION": 86.2938, "RA_OF_ASC_NODE": 45.4092, "ARG_OF_PERICENTER": 166.2781, "MEAN_ANOMALY": 315.1856, "EPHEMERIS_TYPE": 0, "CLASSIFICATION_TYPE": "U", "NORAD_CAT_ID": 38228, "ELEMENT_SET_NO": 999, "REV_AT_EPOCH": 84884, "BSTAR": 0.00021289633, "MEAN_MOTION_DOT": 5.52e-06, "MEAN_MOTION_DDOT": 0}, "tle": {"line1": "1 38228U 97051ZC  25353.93832501  .00000552  00000+0  21290-3 0  9992", "line2": "2 38228  86.2938  45.4092 0065082 166.2781 315.1856 14.27277323848846"}}, "geometry": {"type": "Point", "coordinates": [-131.84153850222407, -37.74694415384925]}}, {"type": "Feature", "properties": {"norad_id": 38241, "name": "IRIDIUM 33 DEB", "group": "iridium-33-debris", "lat": 16.68967088449301, "lon": 166.1859798748193, "alt_km": 711.5113381655492, "timestamp": "2025-12-20T05:41:50.416793+00:00", "meta": {"OBJECT_NAME": "IRIDIUM 33 DEB", "OBJECT_ID": "1997-051ZR", "EPOCH": "2025-12-18T18:17:11.654016", "MEAN_MOTION": 14.54903336, "ECCENTRICITY": 0.00053297, "INCLINATION": 86.3221, "RA_OF_ASC_NODE": 347.9418, "ARG_OF_PERICENTER": 59.8994, "MEAN_ANOMALY": 300.274, "EPHEMERIS_TYPE": 0, "CLASSIFICATION_TYPE": "U", "NORAD_CAT_ID": 38241, "ELEMENT_SET_NO": 999, "REV_AT_EPOCH": 60288, "BSTAR": 0.0005578999, "MEAN_MOTION_DOT": 2.417e-05, "MEAN_MOTION_DDOT": 0}, "tle": {"line1": "1 38241U 97051ZR  25352.76194044  .00002417  00000+0  55790-3 0  9994", "line2": "2 38241  86.3221 347.9418 0005329  59.8994 300.2740 14.54903336602889"}}, "geometry": {"type": "Point", "coordinates": [166.1859798748193, 16.68967088449301]}}, {"type": "Feature", "properties": {"norad_id": 38474, "name": "IRIDIUM 33 DEB", "group": "iridium-33-debris", "lat": -3.8959313304498653, "lon": -172.94682546907814, "alt_km": 736.3806827283679, "timestamp": "2025-12-20T05:41:50.416803+00:00", "meta": {"OBJECT_NAME": "IRIDIUM 33 DEB", "OBJECT_ID": "1997-051AAB", "EPOCH": "2025-12-19T07:20:05.894592", "MEAN_MOTION": 14.50712379, "ECCENTRICITY": 0.0027817, "INCLINATION": 86.3489, "RA_OF_ASC_NODE": 7.2093, "ARG_OF_PERICENTER": 68.0282, "MEAN_ANOMALY": 292.3875, "EPHEMERIS_TYPE": 0, "CLASSIFICATION_TYPE": "U", "NORAD_CAT_ID": 38474, "ELEMENT_SET_NO": 999, "REV_AT_EPOCH": 65413, "BSTAR": 0.00035872, "MEAN_MOTION_DOT": 1.437e-05, "MEAN_MOTION_DDOT": 0}, "tle": {"line1": "1 38474U 97051AAB 25353.30562378  .00001437  00000+0  35872-3 0  9992", "line2": "2 38474  86.3489   7.2093 0027817  68.0282 292.3875 14.50712379654132"}}, "geometry": {"type": "Point", "coordinates": [-172.94682546907814, -3.8959313304498653]}}, {"type": "Feature", "properties": {"norad_id": 39777, "name": "IRIDIUM 33 DEB", "group": "iridium-33-debris", "lat": 26.110515973994215, "lon": 173.38858819440262, "alt_km": 733.4144978888944, "timestamp": "2025-12-20T05:41:50.416813+00:00", "meta": {"OBJECT_NAME": "IRIDIUM 33 DEB", "OBJECT_ID": "1997-051AAJ", "EPOCH": "2025-12-17T11:37:29.440128", "MEAN_MOTION": 14.56536598, "ECCENTRICITY": 0.00601884, "INCLINATION": 85.9622, "RA_OF_ASC_NODE": 172.7412, "ARG_OF_PERICENTER": 170.5587, "MEAN_ANOMALY": 189.6768, "EPHEMERIS_TYPE": 0, "CLASSIFICATION_TYPE": "U", "NORAD_CAT_ID": 39777, "ELEMENT_SET_NO": 999, "REV_AT_EPOCH": 60254, "BSTAR": 0.0020288102, "MEAN_MOTION_DOT": 9.279e-05, "MEAN_MOTION_DDOT": 0}, "tle": {"line1": "1 39777U 97051AAJ 25351.48436852  .00009279  00000+0  20288-2 0  9999", "line2": "2 39777  85.9622 172.7412 0060188 170.5587 189.6768 14.56536598602541"}}, "geometry": {"type": "Point", "coordinates": [173.38858819440262, 26.110515973994215]}}]}